NIGCOMSAT 1R            
1 38014U 11077A   17042.85950958  .00000120  00000-0  00000+0 0  9997
2 38014   0.0079 312.5246 0001542 345.1211 196.3662  1.00275699 18816
FENGYUN 2F              
1 38049U 12002A   17042.90289258 -.00000381  00000-0  00000+0 0  9998
2 38049   1.4617  77.7436 0000810 198.3029 303.0392  1.00264652 18678
SES-4                   
1 38087U 12007A   17040.35940205 -.00000193  00000-0  00000+0 0  9999
2 38087   0.0206  11.2860 0002320 304.3605 291.3498  1.00273230 18241
BEIDOU G5               
1 38091U 12008A   17042.80278388  .00000032  00000-0  00000+0 0  9994
2 38091   2.0106  54.4346 0004301 222.4495 212.9243  1.00268047 18262
INTELSAT 22 (IS-22)     
1 38098U 12011A   17040.41162714 -.00000082  00000-0  00000+0 0  9991
2 38098   0.0203  25.6459 0002000 296.6403  37.6629  1.00268683 17812
APSTAR 7                
1 38107U 12013A   17042.88935392 -.00000126  00000-0  00000+0 0  9996
2 38107   0.0325  88.6731 0002561 232.4513 217.6465  1.00271589 17954
YAHSAT 1B               
1 38245U 12016A   17041.47685162  .00000101  00000-0  00000+0 0  9995
2 38245   0.0107 105.8351 0002091 230.5299  23.5872  1.00271534 17690
JCSAT-13                
1 38331U 12023A   17042.26246230 -.00000382  00000-0  00000+0 0  9998
2 38331   0.0056  90.2261 0002314 246.9639  22.7997  1.00270702 17351
VINASAT-2               
1 38332U 12023B   17042.74909295 -.00000354  00000-0  00000+0 0  9998
2 38332   0.0054 279.4530 0002804  60.4466 203.5743  1.00272246 17398
NIMIQ 6                 
1 38342U 12026A   17041.86101938 -.00000199  00000-0  00000+0 0  9999
2 38342   0.0007  57.6761 0002896 266.2508  36.0535  1.00269827 17370
CHINASAT 2A (ZX 2A)     
1 38352U 12028A   17043.05899387 -.00000317  00000-0  00000+0 0  9999
2 38352   0.0348 161.1582 0005638 174.6566 285.9574  1.00272509 17429
INTELSAT 19 (IS-19)     
1 38356U 12030A   17041.14874567 -.00000082  00000-0  00000-0 0  9997
2 38356   0.0172 348.2617 0002761 339.2698  32.4136  1.00272427 16241
ECHOSTAR 17             
1 38551U 12035A   17041.90535261 -.00000101  00000-0  00000+0 0  9999
2 38551   0.0131  98.5576 0001849 223.3041  38.0869  1.00271367 16903
METEOSAT-10 (MSG-3)     
1 38552U 12035B   17042.60558565 -.00000030  00000-0  00000+0 0  9991
2 38552   0.6900  44.7517 0000925 220.1567  95.0439  1.00264708 17003
SES-5                   
1 38652U 12036A   17043.07078743  .00000009  00000-0  00000+0 0  9995
2 38652   0.0447 279.1050 0002099  35.6767 217.9479  1.00271659 16859
TIANLIAN 1-03           
1 38730U 12040A   17041.57948177  .00000046  00000-0  00000-0 0  9999
2 38730   0.1735 269.4151 0001367  66.3892  24.1506  1.00272244 14485
INTELSAT 20 (IS-20)     
1 38740U 12043A   17041.41891337 -.00000050  00000-0  00000+0 0  9996
2 38740   0.0227 112.3115 0001438  70.4729 177.1768  1.00272171 16605
HYLAS 2                 
1 38741U 12043B   17041.52269591  .00000129  00000-0  00000+0 0  9996
2 38741   0.0139 263.2366 0002005  82.2796  14.4781  1.00270568 16626
INTELSAT 21 (IS-21)     
1 38749U 12045A   17042.76660216 -.00000310  00000-0  00000+0 0  9995
2 38749   0.0190 112.6934 0002188 212.5549  34.7374  1.00270147 16429
ASTRA 2F                
1 38778U 12051A   17041.53053684  .00000124  00000-0  00000+0 0  9995
2 38778   0.0924 251.1629 0003234  11.8710  96.8910  1.00271643 16066
GSAT-10                 
1 38779U 12051B   17041.37868989 -.00000190  00000-0  00000+0 0  9994
2 38779   0.0790 269.9224 0001377  38.6646  51.3625  1.00270865 16061
INTELSAT 23 (IS-23)     
1 38867U 12057A   17042.75273937 -.00000310  00000-0  00000+0 0  9998
2 38867   0.0166 239.4937 0002119  84.6998  35.7923  1.00269499 15893
BEIDOU G6               
1 38953U 12059A   17043.06761321 -.00000200  00000-0  10000-3 0  9993
2 38953   1.3998  79.9243 0005728 184.4575 346.3000  1.00270948 15834
LUCH 5B                 
1 38977U 12061A   17042.31781628 -.00000156  00000-0  00000+0 0  9996
2 38977   3.2908  75.4633 0003441 235.0327 289.1985  1.00270509 15956
YAMAL 300K              
1 38978U 12061B   17041.95772000  .00000045  00000-0  00000-0 0  9997
2 38978   0.0175 167.3243 0000458  65.7121  75.8631  1.00267753 15406
STAR ONE C3             
1 38991U 12062A   17042.62218846 -.00000274  00000-0  00000+0 0  9995
2 38991   0.0246 101.1927 0003106 219.0966 330.5300  1.00270877 15639
EUTELSAT 21B            
1 38992U 12062B   17041.54885318  .00000104  00000-0  00000-0 0  9992
2 38992   0.0659  18.0323 0002165 313.3758  28.5418  1.00272044 15637
ECHOSTAR 16             
1 39008U 12065A   17042.77628927 -.00000307  00000-0  00000+0 0  9996
2 39008   0.0134  99.4366 0002122 227.8982  32.6136  1.00271882 15592
CHINASAT 12 (ZX 12)     
1 39017U 12067A   17042.99729998 -.00000231  00000-0  00000+0 0  9998
2 39017   0.0205  93.2765 0003011 230.0780 265.3789  1.00271711 15495
EUTELSAT 70B            
1 39020U 12069A   17042.41058372 -.00000069  00000-0  00000+0 0  9991
2 39020   0.0631 353.4491 0002699 303.1467  63.3381  1.00272642 15391
YAMAL 402               
1 39022U 12070A   17041.99077877  .00000060  00000-0  10000-3 0  9993
2 39022   0.0259  99.0580 0002735 239.9441 213.7845  1.00273090 15372
SKYNET 5D               
1 39034U 12075A   17042.83747382  .00000075  00000-0  00000+0 0  9991
2 39034   0.0711  12.8301 0004243 310.4482 172.9746  1.00272442 15307
MEXSAT 3                
1 39035U 12075B   17041.92665895 -.00000051  00000-0  00000+0 0  9994
2 39035   0.0524 258.0816 0002103  41.4897  60.3692  1.00271685 15251
TDRS 11                 
1 39070U 13004A   17042.99401978  .00000073  00000-0  00000+0 0  9997
2 39070   5.5538 328.7834 0011687 298.6964  61.3173  1.00271113 14775
AMAZONAS 3              
1 39078U 13006A   17041.77754148 -.00000308  00000-0  00000+0 0  9994
2 39078   0.0492 247.6237 0003361  32.9821  79.3179  1.00271270 14745
AZERSPACE 1             
1 39079U 13006B   17042.47855059  .00000108  00000-0  00000+0 0  9993
2 39079   0.0130 116.3414 0002679 225.7136  17.9356  1.00270750 14710
EUTELSAT 117 WEST A     
1 39122U 13012A   17042.92946980 -.00000038  00000-0  00000+0 0  9996
2 39122   0.0216 247.0353 0002541  83.0881  29.8237  1.00272332 14255
ANIK G1                 
1 39127U 13014A   17041.90587462 -.00000099  00000-0  00000+0 0  9993
2 39127   0.0051 169.4938 0003092 134.0597  56.3785  1.00271651 14038
CHINASAT 11 (ZX 11)     
1 39157U 13020A   17041.91347002 -.00000306  00000-0  00000+0 0  9999
2 39157   0.0698 267.0293 0003280 288.8827  12.0540  1.00214589 13922
EUTELSAT 7B             
1 39163U 13022A   17041.58928943  .00000022  00000-0  00000+0 0  9994
2 39163   0.0447   0.6442 0005798 344.3962  14.9039  1.00272410 13776
SES-6                   
1 39172U 13026A   17041.37773411 -.00000287  00000-0  00000+0 0  9997
2 39172   0.0195  35.2214 0002342 275.8501 285.0172  1.00272629 13496
IRNSS-1A                
1 39199U 13034A   17040.78369974  .00000063  00000-0  00000+0 0  9995
2 39199  28.6135 117.2519 0021805 185.9014 174.0891  1.00276910 13413
ALPHASAT                
1 39215U 13038A   17042.62373445  .00000113  00000-0  00000+0 0  9997
2 39215   1.5877  30.4377 0002394 293.7008  67.0494  1.00270990 13058
INSAT-3D                
1 39216U 13038B   17042.37851019 -.00000181  00000-0  00000+0 0  9994
2 39216   0.0515 262.4443 0002112  59.9818  37.5206  1.00271607 13084
EUTELSAT 25B            
1 39233U 13044A   17041.53807809  .00000117  00000-0  00000+0 0  9993
2 39233   0.0495   3.9606 0002030 315.8231  40.1631  1.00270286 12679
GSAT-7                  
1 39234U 13044B   17042.40058688 -.00000102  00000-0  00000+0 0  9999
2 39234   0.0564 268.7920 0013015  17.5103  73.5160  1.00272191 12681
AMOS-4                  
1 39237U 13045A   17041.42852853 -.00000018  00000-0  00000+0 0  9996
2 39237   0.0634 260.6822 0002546  57.5141  41.7459  1.00272220 12666
ASTRA 2E                
1 39285U 13056A   17042.52694194  .00000125  00000-0  00000+0 0  9993
2 39285   0.0566  27.4818 0002158 283.0168  49.4442  1.00269906 12373
SIRIUS FM-6             
1 39360U 13058A   17042.92760026 -.00000042  00000-0  00000+0 0  9990
2 39360   0.0324  93.5513 0000450  57.7010 208.7503  1.00270880 12135
RADUGA-1M 3             
1 39375U 13062A   17042.84937661 -.00000063  00000-0  00000+0 0  9996
2 39375   0.0226 185.4787 0002468 143.7787 188.5834  1.00272414 11916
SES-8                   
1 39460U 13071A   17042.34282212 -.00000294  00000-0  00000+0 0  9997
2 39460   0.0550 278.7102 0001799  79.8354   1.4152  1.00271096 11655
INMARSAT 5-F1           
1 39476U 13073A   17043.01228858  .00000004  00000-0  00000+0 0  9995
2 39476   0.0117  90.3201 0000219 269.7852 209.1168  1.00268599 11713
TKSAT-1 (TUPAC KATARI)  
1 39481U 13075A   17042.22312834 -.00000220  00000-0  00000+0 0  9994
2 39481   0.0098 118.1969 0003554 200.0338 176.3339  1.00271377 11622
EXPRESS-AM5             
1 39487U 13077A   17038.75751295 -.00000302  00000-0  00000+0 0  9994
2 39487   0.0428 254.2867 0000642 154.8622 141.6086  1.00270686 12112
GSAT-14                 
1 39498U 14001A   17042.40104231 -.00000102  00000-0  00000+0 0  9991
2 39498   0.1293 266.3720 0002990 114.3089 339.2923  1.00274075 11359
THAICOM 6               
1 39500U 14002A   17041.98941594 -.00000146  00000-0  00000+0 0  9997
2 39500   0.0462 133.9375 0000772 196.3943 245.5448  1.00272496 11299
TDRS 12                 
1 39504U 14004A   17041.65753235 -.00000290  00000-0  00000+0 0  9990
2 39504   6.1099 336.2467 0004480 336.9765  23.1373  1.00263173 11222
ABS-2                   
1 39508U 14006A   17042.39831493 -.00000111  00000-0  00000+0 0  9993
2 39508   0.0436 290.5162 0003282  37.3350  32.0902  1.00272285 11118
ATHENA-FIDUS            
1 39509U 14006B   17042.50121558  .00000129  00000-0  00000+0 0  9999
2 39509   0.0100  91.9938 0001438 233.7203  34.2382  1.00269953 11283
